{
  "type": "FeatureCollection",
  "features": [
    {
      "type": "Feature",
      "properties": {
        "id": "zone-1",
        "name": "만경강 춘포지구 사업 대상지 (전체)",
        "subname": "만경강 북안 수변부 일원 (115,000㎡)",
        "area_sqm": 115000,
        "target_species": [
          "양미역취",
          "가시박",
          "환삼덩굴"
        ],
        "density": "생태계교란식물 대군락 (피도 70%)",
        "priority": "드론 M3T 정사영상 예찰 및 뿌리 굴취",
        "color": "#10b981",
        "completed_area": 0,
        "progress_pct": 0.0,
        "status_label": "미실시 (작업 준비)",
        "work_summary": "작업 준비 중 / 미실시"
      },
      "geometry": {
        "type": "Polygon",
        "coordinates": [
          [
            [
              126.981,
              35.8992
            ],
            [
              126.9865,
              35.8978
            ],
            [
              126.9945,
              35.8958
            ],
            [
              127.002,
              35.8942
            ],
            [
              127.0025,
              35.893
            ],
            [
              126.9948,
              35.8946
            ],
            [
              126.9868,
              35.8966
            ],
            [
              126.9815,
              35.8979
            ],
            [
              126.981,
              35.8992
            ]
          ]
        ]
      }
    }
  ]
}