{
  "type": "FeatureCollection",
  "features": [
    {
      "type": "Feature",
      "properties": {
        "id": "doowoong-all",
        "name": "두웅습지보호지역 (람사르습지)",
        "subname": "충남 태안군 원북면 신두해변길 291-30 일원 (총 67,050㎡)",
        "area_sqm": 67050,
        "target_species": [
          "미국수련",
          "황소개구리",
          "마름"
        ],
        "density": "개방수면 수련 군락 및 수변 갈대·부들 군락",
        "priority": "수련 지하경(뿌리줄기) 수작업 굴취 및 15개소 통발 포획",
        "color": "#10b981",
        "completed_area": 10000,
        "progress_pct": 14.9,
        "status": "4차 작업 완료 (누적 1,706kg 수거: 수련 1,700kg + 황소개구리 6kg)",
        "status_label": "4회차 방제 완료",
        "work_summary": "누적 10,000㎡ 방제 / 1,706kg 수거 완료 (수련 1,700kg + 황소개구리 6kg)",
        "removed_kg": 1706,
        "hide_fill": true,
        "hide_label": true,
        "hide_outline": true
      },
      "geometry": {
        "type": "Polygon",
        "coordinates": [
          [
            [
              126.1945,
              36.835
            ],
            [
              126.1972,
              36.8354
            ],
            [
              126.1978,
              36.8373
            ],
            [
              126.1966,
              36.838
            ],
            [
              126.1948,
              36.8373
            ],
            [
              126.1945,
              36.835
            ]
          ]
        ]
      }
    }
  ]
}