{
  "type": "FeatureCollection",
  "features": [
    {
      "type": "Feature",
      "properties": {
        "id": "zone-1",
        "name": "제원대교 상류부",
        "subname": "가시박·돼지풀 산재구역",
        "area_sqm": 28836,
        "target_species": [
          "가시박",
          "미국쑥부쟁이",
          "돼지풀"
        ],
        "density": "산재 (피도 25%)",
        "priority": "중점 제거",
        "start_coords": "N 36°06′42.8″ E 127°34′03.6″",
        "end_coords": "N 36°06′25.6″ E 127°34′26.9″",
        "color": "#38bdf8",
        "completed_area": 0,
        "progress_pct": 0.0
      },
      "geometry": {
        "type": "Polygon",
        "coordinates": [
          [
            [
              127.567667,
              36.111889
            ],
            [
              127.5684,
              36.1112
            ],
            [
              127.571,
              36.109
            ],
            [
              127.574139,
              36.107111
            ],
            [
              127.5735,
              36.1065
            ],
            [
              127.5702,
              36.1082
            ],
            [
              127.5671,
              36.1105
            ],
            [
              127.567667,
              36.111889
            ]
          ]
        ]
      }
    },
    {
      "type": "Feature",
      "properties": {
        "id": "zone-2",
        "name": "천내리습지 중심부",
        "subname": "가시박 대군락 집중방제구역",
        "area_sqm": 72803,
        "target_species": [
          "가시박(대군락)",
          "돼지풀"
        ],
        "density": "대군락 형성 (피도 75%)",
        "priority": "최우선 집중 제거",
        "start_coords": "N 36°06′25.6″ E 127°34′26.9″",
        "end_coords": "N 36°06′18.2″ E 127°34′42.9″",
        "color": "#f87171",
        "completed_area": 66000,
        "progress_pct": 90.7
      },
      "geometry": {
        "type": "Polygon",
        "coordinates": [
          [
            [
              127.574139,
              36.107111
            ],
            [
              127.5758,
              36.106
            ],
            [
              127.5772,
              36.1054
            ],
            [
              127.578583,
              36.105056
            ],
            [
              127.5781,
              36.1042
            ],
            [
              127.5762,
              36.1048
            ],
            [
              127.5745,
              36.1055
            ],
            [
              127.5735,
              36.1065
            ],
            [
              127.574139,
              36.107111
            ]
          ]
        ]
      }
    },
    {
      "type": "Feature",
      "properties": {
        "id": "zone-3",
        "name": "천내리습지 하류부",
        "subname": "하류 확산방지 차단구역",
        "area_sqm": 43167,
        "target_species": [
          "가시박(대군락)"
        ],
        "density": "대군락 형성 (피도 60%)",
        "priority": "확산 방지 차단",
        "start_coords": "N 36°06′18.2″ E 127°34′42.9″",
        "end_coords": "N 36°06′13.3″ E 127°34′55.6″",
        "color": "#34d399",
        "completed_area": 0,
        "progress_pct": 0.0
      },
      "geometry": {
        "type": "Polygon",
        "coordinates": [
          [
            [
              127.578583,
              36.105056
            ],
            [
              127.5798,
              36.1045
            ],
            [
              127.5812,
              36.104
            ],
            [
              127.582111,
              36.103694
            ],
            [
              127.5818,
              36.1028
            ],
            [
              127.5802,
              36.1033
            ],
            [
              127.5781,
              36.1042
            ],
            [
              127.578583,
              36.105056
            ]
          ]
        ]
      }
    }
  ]
}